NAVSTAR 48 (USA 151)    
1 26407U 00040A   26169.73207970  .00000025  00000+0  00000+0 0  9997
2 26407  54.8512 215.1009 0121028 302.4827  16.7895  2.00557662189977
NAVSTAR 51 (USA 166)    
1 27663U 03005A   26169.67511435  .00000025  00000+0  00000+0 0  9993
2 27663  54.8819 214.9098 0147937  53.0835   1.0670  2.00560468171340
NAVSTAR 54 (USA 177)    
1 28190U 04009A   26169.40913097 -.00000046  00000+0  00000+0 0  9999
2 28190  54.8286 275.6379 0116203 173.1352 202.0749  2.00554634162977
NAVSTAR 56 (USA 180)    
1 28474U 04045A   26169.72826587 -.00000088  00000+0  00000+0 0  9992
2 28474  55.1348 324.8340 0169874 316.4539 354.1240  2.00555891158450
NAVSTAR 57 (USA 183)    
1 28874U 05038A   26169.42005727 -.00000043  00000+0  00000+0 0  9992
2 28874  54.8770 273.1277 0127877 296.1687 115.6239  2.00565534151860
INMARSAT 4-F2           
1 28899U 05044A   26169.56679557 -.00000269  00000+0  00000+0 0  9999
2 28899   5.0973  43.7031 0002918  41.1947 169.4302  1.00269076 75532
NAVSTAR 58 (USA 190)    
1 29486U 06042A   26169.13028664  .00000049  00000+0  00000+0 0  9996
2 29486  54.7109 151.3015 0106649  54.4413  46.6051  2.00569747144416
NAVSTAR 59 (USA 192)    
1 29601U 06052A   26167.42124558  .00000054  00000+0  00000+0 0  9991
2 29601  54.9348 214.0365 0085218  90.8278 270.2339  2.00557832143390
NAVSTAR 60 (USA 196)    
1 32260U 07047A   26167.22762551 -.00000035  00000+0  00000+0 0  9990
2 32260  54.0945  80.1052 0166748  87.3533 274.5596  2.00555157136793
COSMOS 2433 [GLONASS-M] 
1 32275U 07052A   26169.32339666 -.00000055  00000+0  00000+0 0  9994
2 32275  65.5762 315.8954 0002563 193.8036 166.1776  2.13103986145088
COSMOS 2432 [GLONASS-M] 
1 32276U 07052B   26169.43377550 -.00000056  00000+0  00000+0 0  9992
2 32276  65.5932 316.0195 0007652 331.4172  57.1212  2.13103035145116
NAVSTAR 61 (USA 199)    
1 32384U 07062A   26167.53498160 -.00000029  00000+0  00000+0 0  9993
2 32384  55.0322 274.1789 0035702 165.2122 184.0447  2.00560015135492
COSMOS 2434 [GLONASS-M] 
1 32393U 07065A   26168.15492016  .00000065  00000+0  00000+0 0  9998
2 32393  64.3178 191.9169 0001197 336.0402  97.3647  2.13101292143772
COSMOS 2436 [GLONASS-M] 
1 32395U 07065C   26169.35420748  .00000057  00000+0  00000+0 0  9997
2 32395  64.3266 191.9485 0017258 353.8532  51.9116  2.13100056143751
NAVSTAR 62 (USA 201)    
1 32711U 08012A   26169.13324188  .00000048  00000+0  00000+0 0  9999
2 32711  54.4975 149.8869 0211272 247.8593 109.8588  2.00572404133772
NAVSTAR 64 (USA 206)    
1 35752U 09043A   26167.28361034 -.00000073  00000+0  00000+0 0  9996
2 35752  56.2097  27.4871 0053768  83.1336  31.1253  2.00554227123340
COSMOS 2456 [GLONASS-M] 
1 36111U 09070A   26167.15434897 -.00000023  00000+0  00000+0 0  9995
2 36111  65.0107  71.0074 0004648 331.0109 212.9328  2.13103754128409
COSMOS 2457 [GLONASS-M] 
1 36112U 09070B   26169.33231891 -.00000027  00000+0  00000+0 0  9991
2 36112  64.9975  70.7771 0002917 122.0762  60.1336  2.13101036128459
COSMOS 2460 [GLONASS-M] 
1 36402U 10007C   26168.56101641 -.00000054  00000+0  00000+0 0  9998
2 36402  65.4202 314.4544 0002116 111.2732 201.1882  2.13101532126737
NAVSTAR 65 (USA 213)    
1 36585U 10022A   26168.96081779  .00000037  00000+0  00000+0 0  9990
2 36585  54.2701 208.5308 0126293  66.0938 297.8200  2.00562413117616
BEIDOU-2 IGSO-1         
1 36828U 10036A   26168.91794174 -.00000086  00000+0  00000+0 0  9995
2 36828  54.3019 162.9525 0059238 225.3267 315.9903  1.00271928 58109
BEIDOU-2 G4             
1 37210U 10057A   26169.64137762 -.00000120  00000+0  00000+0 0  9998
2 37210   3.6509  68.9379 0005286 196.3307  32.4982  1.00270608 57307
BEIDOU-2 IGSO-2         
1 37256U 10068A   26169.68366918 -.00000219  00000+0  00000+0 0  9990
2 37256  47.5458 271.8126 0055907 212.7128 136.4505  1.00282207 56809
BEIDOU-2 IGSO-3         
1 37384U 11013A   26169.61194170 -.00000190  00000+0  00000+0 0  9993
2 37384  62.4088  40.1377 0034295 184.6608  10.0015  1.00267082 55679
GSAT-8                  
1 37605U 11022A   26169.89515080  .00000078  00000+0  00000+0 0  9990
2 37605   2.1365  81.8041 0002093 198.1643   4.4963  1.00271420 53234
BEIDOU-2 IGSO-4         
1 37763U 11038A   26167.68545095  .00000019  00000+0  00000+0 0  9991
2 37763  54.6000 165.6770 0159519 231.4431 207.9860  1.00285273 54642
GSAT0101 (GALILEO-PFM)  
1 37846U 11060A   26167.84840131 -.00000088  00000+0  00000+0 0  9992
2 37846  56.9944 341.7702 0002996  53.3752 306.6473  1.70475567 91115
GSAT0102 (GALILEO-FM2)  
1 37847U 11060B   26166.59146788 -.00000084  00000+0  00000+0 0  9997
2 37847  56.9958 341.8048 0003167  14.2663 339.9688  1.70475803 91090
COSMOS 2476 [GLONASS-M] 
1 37867U 11064A   26169.63043072 -.00000025  00000+0  00000+0 0  9998
2 37867  65.2707  72.8228 0022663 238.8292 313.0156  2.13103712113792
COSMOS 2477 [GLONASS-M] 
1 37868U 11064B   26169.35805037 -.00000024  00000+0  00000+0 0  9994
2 37868  65.2769  72.9113 0019699 240.1479 283.0716  2.13102888113783
COSMOS 2475 [GLONASS-M] 
1 37869U 11064C   26169.40005405 -.00000024  00000+0  00000+0 0  9992
2 37869  65.2838  72.9316 0025435 253.1618 257.3953  2.13101709113799
